start=new Date('2022-06-30T00:00:00.000Z').valueOf();
sats=[{"MEAN_ELEMENT_THEORY":"SGP4","APOAPSIS":"541.197","INCLINATION":"53.2211","RCS_SIZE":"LARGE","ELEMENT_SET_NO":"999","EPHEMERIS_TYPE":"0","EPOCH":"2022-06-29T22:00:00.999936","OBJECT_TYPE":"PAYLOAD","LAUNCH_DATE":"2022-03-09","TIME_SYSTEM":"UTC","RA_OF_ASC_NODE":"333.9955","COUNTRY_CODE":"US","REV_AT_EPOCH":"130","SEMIMAJOR_AXIS":"6917.882","GP_ID":"207121178","ARG_OF_PERICENTER":"41.7338","ECCENTRICITY":"0.00020970","PERIOD":"95.438","MEAN_MOTION_DDOT":"0.0000000000000","NORAD_CAT_ID":"51979","FILE":"3505610","CENTER_NAME":"EARTH","MEAN_MOTION_DOT":"0.00023066","OBJECT_NAME":"STARLINK-3656","CLASSIFICATION_TYPE":"U","BSTAR":"0.00146260000000","REF_FRAME":"TEME","TLE_LINE2":"2 51979  53.2211 333.9955 0002097  41.7338   2.3846 15.08839596  1309","TLE_LINE1":"1 51979U 22025Z   22180.91667824  .00023066  00000-0  14626-2 0  9996","OBJECT_ID":"2022-025Z","MEAN_ANOMALY":"2.3846","PERIAPSIS":"538.296","DECAY_DATE":null,"SITE":"AFETR","MEAN_MOTION":"15.08839596"},{"OBJECT_NAME":"STARLINK-3649","MEAN_MOTION_DOT":"0.00009989","REF_FRAME":"TEME","CLASSIFICATION_TYPE":"U","BSTAR":"0.00064477000000","ECCENTRICITY":"0.00013870","MEAN_MOTION_DDOT":"0.0000000000000","PERIOD":"95.437","NORAD_CAT_ID":"51980","FILE":"3505510","CENTER_NAME":"EARTH","MEAN_MOTION":"15.08842609","SITE":"AFETR","TLE_LINE2":"2 51980  53.2144 333.9938 0001387  62.1082 102.0168 15.08842609 18538","TLE_LINE1":"1 51980U 22025AA  22180.91667824  .00009989  00000-0  64477-3 0  9996","OBJECT_ID":"2022-025AA","MEAN_ANOMALY":"102.0168","DECAY_DATE":null,"PERIAPSIS":"538.778","EPHEMERIS_TYPE":"0","ELEMENT_SET_NO":"999","EPOCH":"2022-06-29T22:00:00.999936","TIME_SYSTEM":"UTC","RA_OF_ASC_NODE":"333.9938","OBJECT_TYPE":"PAYLOAD","LAUNCH_DATE":"2022-03-09","COUNTRY_CODE":"US","MEAN_ELEMENT_THEORY":"SGP4","APOAPSIS":"540.697","INCLINATION":"53.2144","RCS_SIZE":"LARGE","GP_ID":"207095357","SEMIMAJOR_AXIS":"6917.872","ARG_OF_PERICENTER":"62.1082","REV_AT_EPOCH":"1853"},{"SITE":"AFETR","MEAN_MOTION":"15.08846276","TLE_LINE2":"2 51981  53.2132 334.0327 0001782  47.3476  36.7803 15.08846276 18534","TLE_LINE1":"1 51981U 22025AB  22180.91667824 -.00004683  00000-0 -27627-3 0  9991","OBJECT_ID":"2022-025AB","MEAN_ANOMALY":"36.7803","DECAY_DATE":null,"PERIAPSIS":"538.493","MEAN_MOTION_DOT":"-0.00004683","OBJECT_NAME":"STARLINK-3635","REF_FRAME":"TEME","BSTAR":"-0.00027627000000","CLASSIFICATION_TYPE":"U","ECCENTRICITY":"0.00017820","MEAN_MOTION_DDOT":"0.0000000000000","PERIOD":"95.437","NORAD_CAT_ID":"51981","FILE":"3505610","CENTER_NAME":"EARTH","SEMIMAJOR_AXIS":"6917.861","GP_ID":"207120679","ARG_OF_PERICENTER":"47.3476","REV_AT_EPOCH":"1853","EPHEMERIS_TYPE":"0","ELEMENT_SET_NO":"999","EPOCH":"2022-06-29T22:00:00.999936","RA_OF_ASC_NODE":"334.0327","TIME_SYSTEM":"UTC","LAUNCH_DATE":"2022-03-09","OBJECT_TYPE":"PAYLOAD","COUNTRY_CODE":"US","MEAN_ELEMENT_THEORY":"SGP4","APOAPSIS":"540.959","RCS_SIZE":"LARGE","INCLINATION":"53.2132"},{"REV_AT_EPOCH":"1854","SEMIMAJOR_AXIS":"6917.938","GP_ID":"207121430","ARG_OF_PERICENTER":"55.1819","MEAN_ELEMENT_THEORY":"SGP4","APOAPSIS":"540.823","INCLINATION":"53.2141","RCS_SIZE":"LARGE","EPHEMERIS_TYPE":"0","ELEMENT_SET_NO":"999","EPOCH":"2022-06-29T22:00:00.999936","TIME_SYSTEM":"UTC","RA_OF_ASC_NODE":"333.9921","OBJECT_TYPE":"PAYLOAD","LAUNCH_DATE":"2022-03-09","COUNTRY_CODE":"US","TLE_LINE2":"2 51982  53.2141 333.9921 0001475  55.1819 128.9814 15.08821139 18548","TLE_LINE1":"1 51982U 22025AC  22180.91667824  .00020071  00000-0  12762-2 0  9992","OBJECT_ID":"2022-025AC","MEAN_ANOMALY":"128.9814","DECAY_DATE":null,"PERIAPSIS":"538.783","SITE":"AFETR","MEAN_MOTION":"15.08821139","ECCENTRICITY":"0.00014750","MEAN_MOTION_DDOT":"0.0000000000000","PERIOD":"95.439","CENTER_NAME":"EARTH","FILE":"3505610","NORAD_CAT_ID":"51982","MEAN_MOTION_DOT":"0.00020071","OBJECT_NAME":"STARLINK-3650","REF_FRAME":"TEME","BSTAR":"0.00127620000000","CLASSIFICATION_TYPE":"U"},{"APOAPSIS":"540.948","RCS_SIZE":"LARGE","INCLINATION":"53.2125","MEAN_ELEMENT_THEORY":"SGP4","OBJECT_TYPE":"PAYLOAD","LAUNCH_DATE":"2022-03-09","TIME_SYSTEM":"UTC","RA_OF_ASC_NODE":"334.0225","COUNTRY_CODE":"US","ELEMENT_SET_NO":"999","EPHEMERIS_TYPE":"0","EPOCH":"2022-06-29T22:00:00.999936","REV_AT_EPOCH":"130","ARG_OF_PERICENTER":"53.3708","SEMIMAJOR_AXIS":"6917.948","GP_ID":"207121679","FILE":"3505610","NORAD_CAT_ID":"51983","CENTER_NAME":"EARTH","ECCENTRICITY":"0.00016410","PERIOD":"95.439","MEAN_MOTION_DDOT":"0.0000000000000","BSTAR":"0.00244430000000","CLASSIFICATION_TYPE":"U","REF_FRAME":"TEME","OBJECT_NAME":"STARLINK-3655","MEAN_MOTION_DOT":"0.00038804","OBJECT_ID":"2022-025AD","MEAN_ANOMALY":"50.7248","PERIAPSIS":"538.678","DECAY_DATE":null,"TLE_LINE2":"2 51983  53.2125 334.0225 0001641  53.3708  50.7248 15.08817919  1302","TLE_LINE1":"1 51983U 22025AD  22180.91667824  .00038804  00000-0  24443-2 0  9995","SITE":"AFETR","MEAN_MOTION":"15.08817919"},{"ARG_OF_PERICENTER":"52.6451","SEMIMAJOR_AXIS":"6917.927","GP_ID":"207121930","REV_AT_EPOCH":"130","TIME_SYSTEM":"UTC","RA_OF_ASC_NODE":"333.9867","LAUNCH_DATE":"2022-03-09","OBJECT_TYPE":"PAYLOAD","COUNTRY_CODE":"US","EPHEMERIS_TYPE":"0","ELEMENT_SET_NO":"999","EPOCH":"2022-06-29T22:00:00.999936","APOAPSIS":"541.026","INCLINATION":"53.2184","RCS_SIZE":"LARGE","MEAN_ELEMENT_THEORY":"SGP4","SITE":"AFETR","MEAN_MOTION":"15.08824714","OBJECT_ID":"2022-025AE","MEAN_ANOMALY":"251.4329","DECAY_DATE":null,"PERIAPSIS":"538.559","TLE_LINE2":"2 51984  53.2184 333.9867 0001783  52.6451 251.4329 15.08824714  1303","TLE_LINE1":"1 51984U 22025AE  22180.91667824  .00032660  00000-0  20615-2 0  9997","REF_FRAME":"TEME","CLASSIFICATION_TYPE":"U","BSTAR":"0.00206150000000","MEAN_MOTION_DOT":"0.00032660","OBJECT_NAME":"STARLINK-3664","NORAD_CAT_ID":"51984","FILE":"3505610","CENTER_NAME":"EARTH","ECCENTRICITY":"0.00017830","MEAN_MOTION_DDOT":"0.0000000000000","PERIOD":"95.439"},{"REV_AT_EPOCH":"130","SEMIMAJOR_AXIS":"6917.910","GP_ID":"207120179","ARG_OF_PERICENTER":"62.9765","MEAN_ELEMENT_THEORY":"SGP4","APOAPSIS":"540.919","INCLINATION":"53.2145","RCS_SIZE":"LARGE","ELEMENT_SET_NO":"999","EPHEMERIS_TYPE":"0","EPOCH":"2022-06-29T22:00:00.999936","OBJECT_TYPE":"PAYLOAD","LAUNCH_DATE":"2022-03-09","TIME_SYSTEM":"UTC","RA_OF_ASC_NODE":"333.9981","COUNTRY_CODE":"US","TLE_LINE2":"2 51985  53.2145 333.9981 0001654  62.9765  81.1268 15.08830399  1303","TLE_LINE1":"1 51985U 22025AF  22180.91667824  .00039204  00000-0  24683-2 0  9998","MEAN_ANOMALY":"81.1268","OBJECT_ID":"2022-025AF","PERIAPSIS":"538.631","DECAY_DATE":null,"SITE":"AFETR","MEAN_MOTION":"15.08830399","ECCENTRICITY":"0.00016540","PERIOD":"95.438","MEAN_MOTION_DDOT":"0.0000000000000","CENTER_NAME":"EARTH","FILE":"3505610","NORAD_CAT_ID":"51985","OBJECT_NAME":"STARLINK-3651","MEAN_MOTION_DOT":"0.00039204","CLASSIFICATION_TYPE":"U","BSTAR":"0.00246830000000","REF_FRAME":"TEME"},{"ARG_OF_PERICENTER":"55.2112","GP_ID":"207120930","SEMIMAJOR_AXIS":"6917.947","REV_AT_EPOCH":"1853","RA_OF_ASC_NODE":"333.9896","TIME_SYSTEM":"UTC","LAUNCH_DATE":"2022-03-09","OBJECT_TYPE":"PAYLOAD","COUNTRY_CODE":"US","EPHEMERIS_TYPE":"0","ELEMENT_SET_NO":"999","EPOCH":"2022-06-29T22:00:00.999936","APOAPSIS":"540.701","RCS_SIZE":"LARGE","INCLINATION":"53.2193","MEAN_ELEMENT_THEORY":"SGP4","MEAN_MOTION":"15.08818316","SITE":"AFETR","OBJECT_ID":"2022-025AG","MEAN_ANOMALY":"288.8724","DECAY_DATE":null,"PERIAPSIS":"538.923","TLE_LINE2":"2 51986  53.2193 333.9896 0001285  55.2112 288.8724 15.08818316 18534","TLE_LINE1":"1 51986U 22025AG  22180.91667824  .00033535  00000-0  21164-2 0  9991","REF_FRAME":"TEME","CLASSIFICATION_TYPE":"U","BSTAR":"0.00211640000000","OBJECT_NAME":"STARLINK-3645","MEAN_MOTION_DOT":"0.00033535","FILE":"3505610","NORAD_CAT_ID":"51986","CENTER_NAME":"EARTH","ECCENTRICITY":"0.00012850","MEAN_MOTION_DDOT":"0.0000000000000","PERIOD":"95.439"},{"MEAN_ELEMENT_THEORY":"SGP4","INCLINATION":"53.2181","RCS_SIZE":"LARGE","APOAPSIS":"540.828","EPOCH":"2022-06-29T22:00:00.999936","ELEMENT_SET_NO":"999","EPHEMERIS_TYPE":"0","COUNTRY_CODE":"US","LAUNCH_DATE":"2022-03-09","OBJECT_TYPE":"PAYLOAD","TIME_SYSTEM":"UTC","RA_OF_ASC_NODE":"333.9879","REV_AT_EPOCH":"1853","SEMIMAJOR_AXIS":"6917.913","GP_ID":"207121179","ARG_OF_PERICENTER":"51.7727","PERIOD":"95.438","MEAN_MOTION_DDOT":"0.0000000000000","ECCENTRICITY":"0.00015180","FILE":"3505610","NORAD_CAT_ID":"51987","CENTER_NAME":"EARTH","MEAN_MOTION_DOT":"0.00033553","OBJECT_NAME":"STARLINK-3644","CLASSIFICATION_TYPE":"U","BSTAR":"0.00211690000000","REF_FRAME":"TEME","TLE_LINE1":"1 51987U 22025AH  22180.91667824  .00033553  00000-0  21169-2 0  9997","TLE_LINE2":"2 51987  53.2181 333.9879 0001518  51.7727 212.3422 15.08829333 18533","PERIAPSIS":"538.728","DECAY_DATE":null,"MEAN_ANOMALY":"212.3422","OBJECT_ID":"2022-025AH","SITE":"AFETR","MEAN_MOTION":"15.08829333"},{"EPOCH":"2022-06-29T22:00:00.999936","ELEMENT_SET_NO":"999","EPHEMERIS_TYPE":"0","COUNTRY_CODE":"US","LAUNCH_DATE":"2022-03-09","OBJECT_TYPE":"PAYLOAD","RA_OF_ASC_NODE":"333.9882","TIME_SYSTEM":"UTC","MEAN_ELEMENT_THEORY":"SGP4","RCS_SIZE":"LARGE","INCLINATION":"53.2191","APOAPSIS":"540.776","GP_ID":"207121931","SEMIMAJOR_AXIS":"6917.864","ARG_OF_PERICENTER":"55.4213","REV_AT_EPOCH":"130","MEAN_MOTION_DOT":"0.00000302","OBJECT_NAME":"STARLINK-3640","BSTAR":"0.00003707400000","CLASSIFICATION_TYPE":"U","REF_FRAME":"TEME","PERIOD":"95.437","MEAN_MOTION_DDOT":"0.0000000000000","ECCENTRICITY":"0.00015130","FILE":"3505610","CENTER_NAME":"EARTH","NORAD_CAT_ID":"51988","SITE":"AFETR","MEAN_MOTION":"15.08845253","TLE_LINE1":"1 51988U 22025AJ  22180.91667824  .00000302  00000-0  37074-4 0  9998","TLE_LINE2":"2 51988  53.2191 333.9882 0001513  55.4213 308.7086 15.08845253  1307","PERIAPSIS":"538.683","DECAY_DATE":null,"OBJECT_ID":"2022-025AJ","MEAN_ANOMALY":"308.7086"}];
